NORAD_CAT_ID,OBJECT_NAME,OBJECT_TYPE,EPOCH,MEAN_MOTION,ECCENTRICITY,INCLINATION,RA_OF_ASC_NODE,ARG_OF_PERICENTER,MEAN_ANOMALY,BSTAR,MEAN_MOTION_DOT,MEAN_MOTION_DDOT,TLE_LINE0,TLE_LINE1,TLE_LINE2,SEMIMAJOR_AXIS,PERIOD,APOGEE,PERIGEE,DECAYED
54800.0,STARLINK-5428,PAYLOAD,2023-12-07 19:09:19,15.08840573,0.0001123,53.2175,127.9938,92.6318,267.4803,3.1211e-05,2.09e-06,0.0,0 STARLINK-5428,1 54800U 22175AU  23341.79814697  .00000209  00000-0  31211-4 0  9991,2 54800  53.2175 127.9938 0001123  92.6318 267.4803 15.08840573 53679,6917.879,95.438,540.521,538.967,0.0
54800.0,STARLINK-5428,PAYLOAD,2023-12-08 11:03:11,15.08841217,0.0001082,53.2168,125.0212,91.1753,268.9363,6.0485e-05,6.75e-06,0.0,0 STARLINK-5428,1 54800U 22175AU  23342.46054998  .00000675  00000-0  60485-4 0  9998,2 54800  53.2168 125.0212 0001082  91.1753 268.9363 15.08841217 55930,6917.877,95.437,540.49,538.993,0.0
54800.0,STARLINK-5428,PAYLOAD,2023-12-08 20:35:30,15.08839245,0.0001189,53.2148,123.2359,94.2373,265.8754,0.0001884,2.712e-05,0.0,0 STARLINK-5428,1 54800U 22175AU  23342.85798869  .00002712  00000-0  18840-3 0  9994,2 54800  53.2148 123.2359 0001189  94.2373 265.8754 15.08839245 55994,6917.883,95.438,540.57,538.925,0.0
54800.0,STARLINK-5428,PAYLOAD,2023-12-08 22:10:53,15.08839789,0.000117,53.2148,122.9387,93.8823,266.2302,0.00019513,2.819e-05,0.0,0 STARLINK-5428,1 54800U 22175AU  23342.92422858  .00002819  00000-0  19513-3 0  9990,2 54800  53.2148 122.9387 0001170  93.8823 266.2302 15.08839789 53845,6917.881,95.438,540.555,538.937,0.0
54800.0,STARLINK-5428,PAYLOAD,2023-12-09 09:18:35,15.08835664,0.0001244,53.2148,120.8574,89.2837,270.8297,0.00010707,1.416e-05,0.0,0 STARLINK-5428,1 54800U 22175AU  23343.38791290  .00001416  00000-0  10707-3 0  9998,2 54800  53.2148 120.8574 0001244  89.2837 270.8297 15.08835664 53916,6917.894,95.438,540.619,538.898,0.0
54800.0,STARLINK-5428,PAYLOAD,2023-12-09 12:29:21,15.0883627,0.0001241,53.2148,120.2628,88.8468,271.2666,0.00010781,1.428e-05,0.0,0 STARLINK-5428,1 54800U 22175AU  23343.52039299  .00001428  00000-0  10781-3 0  9993,2 54800  53.2148 120.2628 0001241  88.8468 271.2666 15.08836270 56093,6917.892,95.438,540.615,538.898,0.0
54800.0,STARLINK-5428,PAYLOAD,2023-12-10 12:20:08,15.08840907,0.0001204,53.2162,115.8025,88.8659,271.2471,8.5896e-05,1.079e-05,0.0,0 STARLINK-5428,1 54800U 22175AU  23344.51399265  .00001079  00000-0  85896-4 0  9997,2 54800  53.2162 115.8025 0001204  88.8659 271.2471 15.08840907 54084,6917.878,95.437,540.576,538.91,0.0
54800.0,STARLINK-5428,PAYLOAD,2023-12-10 13:55:32,15.08840828,0.0001191,53.2162,115.5052,88.9528,271.1601,8.0739e-05,9.97e-06,0.0,0 STARLINK-5428,1 54800U 22175AU  23344.58023256  .00000997  00000-0  80739-4 0  9997,2 54800  53.2162 115.5052 0001191  88.9528 271.1601 15.08840828 56259,6917.878,95.438,540.567,538.919,0.0
54800.0,STARLINK-5428,PAYLOAD,2023-12-10 15:30:55,15.08840731,0.0001168,53.2163,115.2081,86.1093,274.0033,7.6694e-05,9.33e-06,0.0,0 STARLINK-5428,1 54800U 22175AU  23344.64647260  .00000933  00000-0  76694-4 0  9996,2 54800  53.2163 115.2081 0001168  86.1093 274.0033 15.08840731 56265,6917.878,95.438,540.551,538.935,0.0
54800.0,STARLINK-5428,PAYLOAD,2023-12-11 12:10:56,15.08835071,0.0001195,53.2165,111.3419,92.6429,267.47,4.3718e-05,4.08e-06,0.0,0 STARLINK-5428,1 54800U 22175AU  23345.50759841  .00000408  00000-0  43718-4 0  9999,2 54800  53.2165 111.3419 0001195  92.6429 267.4700 15.08835071 54237,6917.895,95.438,540.587,538.934,0.0
54800.0,STARLINK-5428,PAYLOAD,2023-12-11 13:46:19,15.08834767,0.0001178,53.2167,111.0443,97.1058,263.0068,3.5724e-05,2.81e-06,0.0,0 STARLINK-5428,1 54800U 22175AU  23345.57383879  .00000281  00000-0  35724-4 0  9997,2 54800  53.2167 111.0443 0001178  97.1058 263.0068 15.08834767 56403,6917.896,95.438,540.576,538.946,0.0
54800.0,STARLINK-5428,PAYLOAD,2023-12-12 13:37:06,15.0884145,0.0001363,53.2178,106.586,109.4892,250.6248,0.00010859,1.441e-05,0.0,0 STARLINK-5428,1 54800U 22175AU  23346.56743422  .00001441  00000-0  10859-3 0  9991,2 54800  53.2178 106.5860 0001363 109.4892 250.6248 15.08841450 56551,6917.876,95.437,540.684,538.798,0.0
54800.0,STARLINK-5428,PAYLOAD,2023-12-12 15:12:29,15.08842509,0.0001309,53.2177,106.2885,105.6746,254.439,0.00011443,1.534e-05,0.0,0 STARLINK-5428,1 54800U 22175AU  23346.63367362  .00001534  00000-0  11443-3 0  9997,2 54800  53.2177 106.2885 0001309 105.6746 254.4390 15.08842509 54408,6917.873,95.437,540.643,538.832,0.0
54800.0,STARLINK-5428,PAYLOAD,2023-12-13 13:27:53,15.08844463,0.0001244,53.2177,102.1262,103.7476,256.3654,0.00014162,1.967e-05,0.0,0 STARLINK-5428,1 54800U 22175AU  23347.56103162  .00001967  00000-0  14162-3 0  9997,2 54800  53.2177 102.1262 0001244 103.7476 256.3654 15.08844463 56709,6917.867,95.437,540.592,538.871,0.0
54800.0,STARLINK-5428,PAYLOAD,2023-12-14 11:43:17,15.08843875,0.0001185,53.2175,97.9639,97.6903,262.4223,3.2093e-05,2.23e-06,0.0,0 STARLINK-5428,1 54800U 22175AU  23348.48839443  .00000223  00000-0  32093-4 0  9995,2 54800  53.2175  97.9639 0001185  97.6903 262.4223 15.08843875 54687,6917.869,95.437,540.553,538.914,0.0
54800.0,STARLINK-5428,PAYLOAD,2023-12-14 13:18:40,15.08844444,0.000118,53.2173,97.6657,94.5423,265.5704,3.4759e-05,2.65e-06,0.0,0 STARLINK-5428,1 54800U 22175AU  23348.55463375  .00000265  00000-0  34759-4 0  9997,2 54800  53.2173  97.6657 0001180  94.5423 265.5704 15.08844444 56852,6917.867,95.437,540.548,538.915,0.0
54800.0,STARLINK-5428,PAYLOAD,2023-12-14 14:54:03,15.0884668,0.0001166,53.2174,97.3677,82.5122,277.6002,4.6463e-05,4.52e-06,0.0,0 STARLINK-5428,1 54800U 22175AU  23348.62087211  .00000452  00000-0  46463-4 0  9999,2 54800  53.2174  97.3677 0001166  82.5122 277.6002 15.08846680 56869,6917.86,95.437,540.532,538.918,0.0
54800.0,STARLINK-5428,PAYLOAD,2023-12-15 11:34:04,15.08834173,0.0001319,53.2181,93.4994,80.3919,279.7222,6.0383e-06,-1.92e-06,0.0,0 STARLINK-5428,1 54800U 22175AU  23349.48200194 -.00000192  00000-0  60383-5 0  9991,2 54800  53.2181  93.4994 0001319  80.3919 279.7222 15.08834173 54832,6917.898,95.438,540.676,538.851,0.0
54800.0,STARLINK-5428,PAYLOAD,2023-12-15 14:44:50,15.08842271,0.0001391,53.2185,92.9038,69.3223,290.7918,-4.5354e-05,-1.01e-05,0.0,0 STARLINK-5428,1 54800U 22175AU  23349.61447848 -.00001010  00000-0 -45354-4 0  9996,2 54800  53.2185  92.9038 0001391  69.3223 290.7918 15.08842271 57010,6917.873,95.437,540.701,538.776,0.0
54800.0,STARLINK-5428,PAYLOAD,2023-12-16 13:00:14,15.0884894,0.0001787,53.2193,88.7398,57.105,303.0114,8.3306e-05,1.038e-05,0.0,0 STARLINK-5428,1 54800U 22175AU  23350.54183442  .00001038  00000-0  83306-4 0  9994,2 54800  53.2193  88.7398 0001787  57.1050 303.0114 15.08848940 57153,6917.853,95.437,540.954,538.482,0.0
54800.0,STARLINK-5428,PAYLOAD,2023-12-17 11:15:39,15.08837755,0.0002011,53.2192,84.5779,54.3826,305.7353,6.3662e-05,7.25e-06,0.0,0 STARLINK-5428,1 54800U 22175AU  23351.46920442  .00000725  00000-0  63662-4 0  9990,2 54800  53.2192  84.5779 0002011  54.3826 305.7353 15.08837755 55132,6917.887,95.438,541.143,538.361,0.0
54800.0,STARLINK-5428,PAYLOAD,2023-12-17 12:51:02,15.08839193,0.0002081,53.219,84.2811,53.3072,306.8111,7.4609e-05,8.99e-06,0.0,0 STARLINK-5428,1 54800U 22175AU  23351.53544365  .00000899  00000-0  74609-4 0  9999,2 54800  53.2190  84.2811 0002081  53.3072 306.8111 15.08839193 57306,6917.883,95.438,541.187,538.308,0.0
54800.0,STARLINK-5428,PAYLOAD,2023-12-18 11:06:25,15.08856543,0.0001462,53.2175,80.1211,103.7326,256.3829,7.6344e-05,9.28e-06,0.0,0 STARLINK-5428,1 54800U 22175AU  23352.46278980  .00000928  00000-0  76344-4 0  9990,2 54800  53.2175  80.1211 0001462 103.7326 256.3829 15.08856543 55280,6917.83,95.437,540.706,538.683,0.0
54800.0,STARLINK-5428,PAYLOAD,2023-12-19 10:57:12,15.08844927,0.0001229,53.2163,75.6567,88.3466,271.7667,5.8023e-05,6.36e-06,0.0,0 STARLINK-5428,1 54800U 22175AU  23353.45639352  .00000636  00000-0  58023-4 0  9994,2 54800  53.2163  75.6567 0001229  88.3466 271.7667 15.08844927 55435,6917.865,95.437,540.581,538.88,0.0
54800.0,STARLINK-5428,PAYLOAD,2023-12-19 12:32:35,15.0884301,0.0001286,53.2165,75.3605,72.1455,287.9677,-3.4526e-06,-3.43e-06,0.0,0 STARLINK-5428,1 54800U 22175AU  23353.52263458 -.00000343  00000-0 -34526-5 0  9992,2 54800  53.2165  75.3605 0001286  72.1455 287.9677 15.08843010 57602,6917.871,95.437,540.626,538.847,0.0
54800.0,STARLINK-5428,PAYLOAD,2023-12-20 10:48:00,15.08837596,0.0001316,53.218,71.1956,96.2749,263.8393,-0.00010949,-2.03e-05,0.0,0 STARLINK-5428,1 54800U 22175AU  23354.45000385 -.00002030  00000-0 -10949-3 0  9999,2 54800  53.2180  71.1956 0001316  96.2749 263.8393 15.08837596 55584,6917.888,95.438,540.663,538.842,0.0
54800.0,STARLINK-5428,PAYLOAD,2023-12-21 10:38:47,15.08839085,0.0001342,53.2166,66.7369,75.5094,284.6047,0.00013836,1.915e-05,0.0,0 STARLINK-5428,1 54800U 22175AU  23355.44360408  .00001915  00000-0  13836-3 0  9991,2 54800  53.2166  66.7369 0001342  75.5094 284.6047 15.08839085 57896,6917.883,95.438,540.677,538.82,0.0
54800.0,STARLINK-5428,PAYLOAD,2023-12-21 23:21:52,15.08832418,0.0001601,53.2178,64.3613,111.6305,248.4857,0.0003532,5.336e-05,0.0,0 STARLINK-5428,1 54800U 22175AU  23355.97352896  .00005336  00000-0  35320-3 0  9994,2 54800  53.2178  64.3613 0001601 111.6305 248.4857 15.08832418 55810,6917.904,95.438,540.876,538.661,0.0
54800.0,STARLINK-5428,PAYLOAD,2023-12-22 12:04:57,15.08839024,0.000154,53.2173,61.9841,99.5292,260.5874,4.3843e-05,4.1e-06,0.0,0 STARLINK-5428,1 54800U 22175AU  23356.50344809  .00000410  00000-0  43843-4 0  9997,2 54800  53.2173  61.9841 0001540  99.5292 260.5874 15.08839024 58055,6917.883,95.438,540.814,538.683,0.0
54800.0,STARLINK-5428,PAYLOAD,2023-12-22 23:12:39,15.08849978,0.0001545,53.2179,59.9031,76.6151,283.5013,2.3308e-05,8.3e-07,0.0,0 STARLINK-5428,1 54800U 22175AU  23356.96712317  .00000083  00000-0  23308-4 0  9990,2 54800  53.2179  59.9031 0001545  76.6151 283.5013 15.08849978 55960,6917.85,95.437,540.784,538.646,0.0
